IRIDIUM 63              
1 25286U 98021B   25192.14090950  .00000246  00000+0  76880-4 0  9994
2 25286  86.3957  72.0820 0002084  90.4812 269.6623 14.36559070427557
IRIDIUM 69              
1 25319U 98026A   25192.14949738  .00000316  00000+0  92314-4 0  9991
2 25319  86.3959  85.2975 0001564   9.8367 350.2863 14.40986025426757
IRIDIUM 71              
1 25320U 98026B   25192.15319796  .00000259  00000+0  74268-4 0  9993
2 25320  86.3954  79.9818 0003334  47.0510 313.0969 14.41173299427297
IRIDIUM 73              
1 25344U 98032C   25192.11768841  .00000317  00000+0  73909-4 0  9997
2 25344  86.4395  36.6492 0001562  86.4092 273.7292 14.51733803434332
IRIDIUM 82              
1 25467U 98051A   25192.18387345  .00010398  00000+0  29042-3 0  9995
2 25467  86.3668  97.9320 0082199 203.3025 156.4492 15.33114912427630
